{"type": "FeatureCollection", "features": [ {"type": "Feature", "properties": {"norad_id": 28649, "name": "IRS-P5 (CARTOSAT-1)", "group": "resource", "lat": -60.18161013473399, "lon": -175.87471262626403, "alt_km": 604.4271285219193, "timestamp": "2025-12-17T07:00:46.548038+00:00", "meta": {"OBJECT_NAME": "IRS-P5 (CARTOSAT-1)", "OBJECT_ID": "2005-017A", "EPOCH": "2025-12-16T23:29:22.832736", "MEAN_MOTION": 14.90419494, "ECCENTRICITY": 9.56e-05, "INCLINATION": 97.549, "RA_OF_ASC_NODE": 17.2042, "ARG_OF_PERICENTER": 44.6475, "MEAN_ANOMALY": 315.4821, "EPHEMERIS_TYPE": 0, "CLASSIFICATION_TYPE": "U", "NORAD_CAT_ID": 28649, "ELEMENT_SET_NO": 999, "REV_AT_EPOCH": 11667, "BSTAR": 0.00015643253, "MEAN_MOTION_DOT": 1.472e-05, "MEAN_MOTION_DDOT": 0}, "tle": {"line1": "1 28649U 05017A   25350.97873649  .00001472  00000+0  15643-3 0  9995", "line2": "2 28649  97.5490  17.2042 0000956  44.6475 315.4821 14.90419494116671"}}, "geometry": {"type": "Point", "coordinates": [-175.87471262626403, -60.18161013473399]}}, {"type": "Feature", "properties": {"norad_id": 28893, "name": "SINAH 1", "group": "resource", "lat": 17.764154140248472, "lon": -57.47068362733504, "alt_km": 672.2101650671248, "timestamp": "2025-12-17T07:00:46.548050+00:00", "meta": {"OBJECT_NAME": "SINAH 1", "OBJECT_ID": "2005-043D", "EPOCH": "2025-12-16T23:42:55.346976", "MEAN_MOTION": 14.63967195, "ECCENTRICITY": 0.00155238, "INCLINATION": 98.2606, "RA_OF_ASC_NODE": 119.5568, "ARG_OF_PERICENTER": 124.5117, "MEAN_ANOMALY": 235.7553, "EPHEMERIS_TYPE": 0, "CLASSIFICATION_TYPE": "U", "NORAD_CAT_ID": 28893, "ELEMENT_SET_NO": 999, "REV_AT_EPOCH": 7386, "BSTAR": 8.1875888e-05, "MEAN_MOTION_DOT": 3.8e-06, "MEAN_MOTION_DDOT": 0}, "tle": {"line1": "1 28893U 05043D   25350.98814059  .00000380  00000+0  81876-4 0  9995", "line2": "2 28893  98.2606 119.5568 0015523 124.5117 235.7553 14.63967195 73860"}}, "geometry": {"type": "Point", "coordinates": [-57.47068362733504, 17.764154140248472]}}, {"type": "Feature", "properties": {"norad_id": 29079, "name": "EROS B", "group": "resource", "lat": 82.64826825500306, "lon": 17.731220764831175, "alt_km": 353.89291541664534, "timestamp": "2025-12-17T07:00:46.548062+00:00", "meta": {"OBJECT_NAME": "EROS B", "OBJECT_ID": "2006-014A", "EPOCH": "2025-12-16T22:58:50.288736", "MEAN_MOTION": 15.69605363, "ECCENTRICITY": 0.00030335, "INCLINATION": 97.3463, "RA_OF_ASC_NODE": 107.7359, "ARG_OF_PERICENTER": 310.5784, "MEAN_ANOMALY": 49.5213, "EPHEMERIS_TYPE": 0, "CLASSIFICATION_TYPE": "U", "NORAD_CAT_ID": 29079, "ELEMENT_SET_NO": 999, "REV_AT_EPOCH": 9146, "BSTAR": 0.0011971946, "MEAN_MOTION_DOT": 0.00143424, "MEAN_MOTION_DDOT": 0}, "tle": {"line1": "1 29079U 06014A   25350.95752649  .00143424  00000+0  11972-2 0  9999", "line2": "2 29079  97.3463 107.7359 0003033 310.5784  49.5213 15.69605363 91468"}}, "geometry": {"type": "Point", "coordinates": [17.731220764831175, 82.64826825500306]}}, {"type": "Feature", "properties": {"norad_id": 29228, "name": "RESURS-DK 1", "group": "resource", "lat": 16.33802651729357, "lon": -96.07745195029347, "alt_km": 529.841258202985, "timestamp": "2025-12-17T07:00:46.548073+00:00", "meta": {"OBJECT_NAME": "RESURS-DK 1", "OBJECT_ID": "2006-021A", "EPOCH": "2025-12-16T23:56:45.848832", "MEAN_MOTION": 15.12185708, "ECCENTRICITY": 0.00069338, "INCLINATION": 69.9336, "RA_OF_ASC_NODE": 90.8344, "ARG_OF_PERICENTER": 255.7353, "MEAN_ANOMALY": 104.3043, "EPHEMERIS_TYPE": 0, "CLASSIFICATION_TYPE": "U", "NORAD_CAT_ID": 29228, "ELEMENT_SET_NO": 999, "REV_AT_EPOCH": 7502, "BSTAR": 0.00013796725, "MEAN_MOTION_DOT": 2.28e-05, "MEAN_MOTION_DDOT": 0}, "tle": {"line1": "1 29228U 06021A   25350.99775288  .00002280  00000+0  13797-3 0  9993", "line2": "2 29228  69.9336  90.8344 0006933 255.7353 104.3043 15.12185708 75027"}}, "geometry": {"type": "Point", "coordinates": [-96.07745195029347, 16.33802651729357]}}, {"type": "Feature", "properties": {"norad_id": 29268, "name": "ARIRANG-2 (KOMPSAT-2)", "group": "resource", "lat": 73.89217276564591, "lon": 151.1014459524265, "alt_km": 679.0585117661412, "timestamp": "2025-12-17T07:00:46.548085+00:00", "meta": {"OBJECT_NAME": "ARIRANG-2 (KOMPSAT-2)", "OBJECT_ID": "2006-031A", "EPOCH": "2025-12-17T00:51:58.570848", "MEAN_MOTION": 14.64497981, "ECCENTRICITY": 0.0013336, "INCLINATION": 97.8259, "RA_OF_ASC_NODE": 179.2991, "ARG_OF_PERICENTER": 294.5205, "MEAN_ANOMALY": 231.8383, "EPHEMERIS_TYPE": 0, "CLASSIFICATION_TYPE": "U", "NORAD_CAT_ID": 29268, "ELEMENT_SET_NO": 999, "REV_AT_EPOCH": 3481, "BSTAR": 7.1278394e-05, "MEAN_MOTION_DOT": 3.33e-06, "MEAN_MOTION_DDOT": 0}, "tle": {"line1": "1 29268U 06031A   25351.03609457  .00000333  00000+0  71278-4 0  9994", "line2": "2 29268  97.8259 179.2991 0013336 294.5205 231.8383 14.64497981 34817"}}, "geometry": {"type": "Point", "coordinates": [151.1014459524265, 73.89217276564591]}}, {"type": "Feature", "properties": {"norad_id": 29709, "name": "LAPAN-TUBSAT", "group": "resource", "lat": -3.1053695741115153, "lon": -18.013188088529265, "alt_km": 610.6493164553513, "timestamp": "2025-12-17T07:00:46.548096+00:00", "meta": {"OBJECT_NAME": "LAPAN-TUBSAT", "OBJECT_ID": "2007-001A", "EPOCH": "2025-12-16T22:56:41.920800", "MEAN_MOTION": 14.85680279, "ECCENTRICITY": 0.00135755, "INCLINATION": 98.1257, "RA_OF_ASC_NODE": 341.1996, "ARG_OF_PERICENTER": 61.7588, "MEAN_ANOMALY": 298.4995, "EPHEMERIS_TYPE": 0, "CLASSIFICATION_TYPE": "U", "NORAD_CAT_ID": 29709, "ELEMENT_SET_NO": 999, "REV_AT_EPOCH": 2409, "BSTAR": 0.00012915834, "MEAN_MOTION_DOT": 1.064e-05, "MEAN_MOTION_DDOT": 0}, "tle": {"line1": "1 29709U 07001A   25350.95604075  .00001064  00000+0  12916-3 0  9998", "line2": "2 29709  98.1257 341.1996 0013575  61.7588 298.4995 14.85680279 24091"}}, "geometry": {"type": "Point", "coordinates": [-18.013188088529265, -3.1053695741115153]}}, {"type": "Feature", "properties": {"norad_id": 31113, "name": "HAIYANG-1B", "group": "resource", "lat": 65.70181673916589, "lon": -43.55815129075829, "alt_km": 774.5716129054072, "timestamp": "2025-12-17T07:00:46.548107+00:00", "meta": {"OBJECT_NAME": "HAIYANG-1B", "OBJECT_ID": "2007-010A", "EPOCH": "2025-12-16T22:18:38.113920", "MEAN_MOTION": 14.30966518, "ECCENTRICITY": 0.00140819, "INCLINATION": 98.3317, "RA_OF_ASC_NODE": 335.0347, "ARG_OF_PERICENTER": 26.1872, "MEAN_ANOMALY": 334.0022, "EPHEMERIS_TYPE": 0, "CLASSIFICATION_TYPE": "U", "NORAD_CAT_ID": 31113, "ELEMENT_SET_NO": 999, "REV_AT_EPOCH": 97456, "BSTAR": 5.9148659e-05, "MEAN_MOTION_DOT": 1.14e-06, "MEAN_MOTION_DDOT": 0}, "tle": {"line1": "1 31113U 07010A   25350.92960780  .00000114  00000+0  59149-4 0  9990", "line2": "2 31113  98.3317 335.0347 0014081  26.1872 334.0022 14.30966518974565"}}, "geometry": {"type": "Point", "coordinates": [-43.55815129075829, 65.70181673916589]}}, {"type": "Feature", "properties": {"norad_id": 31598, "name": "COSMO-SKYMED 1", "group": "resource", "lat": 60.44720839717268, "lon": 10.86593121186786, "alt_km": 573.1266670906853, "timestamp": "2025-12-17T07:00:46.548119+00:00", "meta": {"OBJECT_NAME": "COSMO-SKYMED 1", "OBJECT_ID": "2007-023A", "EPOCH": "2025-12-17T00:03:47.144736", "MEAN_MOTION": 14.95799043, "ECCENTRICITY": 0.00015252, "INCLINATION": 97.8834, "RA_OF_ASC_NODE": 176.4294, "ARG_OF_PERICENTER": 87.9521, "MEAN_ANOMALY": 272.1874, "EPHEMERIS_TYPE": 0, "CLASSIFICATION_TYPE": "U", "NORAD_CAT_ID": 31598, "ELEMENT_SET_NO": 999, "REV_AT_EPOCH": 254, "BSTAR": 0.00033236908, "MEAN_MOTION_DOT": 3.65e-05, "MEAN_MOTION_DDOT": 0}, "tle": {"line1": "1 31598U 07023A   25351.00262899  .00003650  00000+0  33237-3 0  9994", "line2": "2 31598  97.8834 176.4294 0001525  87.9521 272.1874 14.95799043  2548"}}, "geometry": {"type": "Point", "coordinates": [10.86593121186786, 60.44720839717268]}}, {"type": "Feature", "properties": {"norad_id": 31698, "name": "TERRASAR-X", "group": "resource", "lat": 23.06425883653902, "lon": 179.7983992532037, "alt_km": 507.62767760037605, "timestamp": "2025-12-17T07:00:46.548133+00:00", "meta": {"OBJECT_NAME": "TERRASAR-X", "OBJECT_ID": "2007-026A", "EPOCH": "2025-12-16T12:56:11.976864", "MEAN_MOTION": 15.19148195, "ECCENTRICITY": 0.00018105, "INCLINATION": 97.4453, "RA_OF_ASC_NODE": 355.8641, "ARG_OF_PERICENTER": 90.2212, "MEAN_ANOMALY": 269.923, "EPHEMERIS_TYPE": 0, "CLASSIFICATION_TYPE": "U", "NORAD_CAT_ID": 31698, "ELEMENT_SET_NO": 999, "REV_AT_EPOCH": 2549, "BSTAR": 6.9853987e-05, "MEAN_MOTION_DOT": 1.4e-05, "MEAN_MOTION_DDOT": 0}, "tle": {"line1": "1 31698U 07026A   25350.53902751  .00001400  00000+0  69854-4 0  9999", "line2": "2 31698  97.4453 355.8641 0001810  90.2212 269.9230 15.19148195 25494"}}, "geometry": {"type": "Point", "coordinates": [179.7983992532037, 23.06425883653902]}}, {"type": "Feature", "properties": {"norad_id": 32060, "name": "WORLDVIEW-1 (WV-1)", "group": "resource", "lat": -68.05314968597554, "lon": -90.06448128939613, "alt_km": 499.21013184762614, "timestamp": "2025-12-17T07:00:46.548148+00:00", "meta": {"OBJECT_NAME": "WORLDVIEW-1 (WV-1)", "OBJECT_ID": "2007-041A", "EPOCH": "2025-12-16T20:28:22.752768", "MEAN_MOTION": 15.24759067, "ECCENTRICITY": 8.68e-05, "INCLINATION": 97.3838, "RA_OF_ASC_NODE": 108.2762, "ARG_OF_PERICENTER": 114.2837, "MEAN_ANOMALY": 245.8491, "EPHEMERIS_TYPE": 0, "CLASSIFICATION_TYPE": "U", "NORAD_CAT_ID": 32060, "ELEMENT_SET_NO": 999, "REV_AT_EPOCH": 1510, "BSTAR": 0.00027812589, "MEAN_MOTION_DOT": 6.82e-05, "MEAN_MOTION_DDOT": 0}, "tle": {"line1": "1 32060U 07041A   25350.85304112  .00006820  00000+0  27813-3 0  9991", "line2": "2 32060  97.3838 108.2762 0000868 114.2837 245.8491 15.24759067 15101"}}, "geometry": {"type": "Point", "coordinates": [-90.06448128939613, -68.05314968597554]}}]}